NORAD_CAT_ID,OBJECT_NAME,OBJECT_TYPE,EPOCH,MEAN_MOTION,ECCENTRICITY,INCLINATION,RA_OF_ASC_NODE,ARG_OF_PERICENTER,MEAN_ANOMALY,BSTAR,MEAN_MOTION_DOT,MEAN_MOTION_DDOT,TLE_LINE0,TLE_LINE1,TLE_LINE2,SEMIMAJOR_AXIS,PERIOD,APOGEE,PERIGEE,DECAYED
55401.0,STARLINK-5076,PAYLOAD,2023-06-05 05:55:53,15.69917792,0.0003429,69.9976,99.4772,267.4452,92.6352,6.4471e-06,5.62e-06,0.0,0 STARLINK-5076,1 55401U 23014L   23156.24715184  .00000562  00000-0  64471-5 0  9994,2 55401  69.9976  99.4772 0003429 267.4452  92.6352 15.69917792 19754,6737.269,91.725,361.444,356.824,0.0
55401.0,STARLINK-5076,PAYLOAD,2023-06-05 13:34:39,15.69919289,0.0003308,69.9976,98.5822,265.846,94.2357,1.0615e-05,1.064e-05,0.0,0 STARLINK-5076,1 55401U 23014L   23156.56573524  .00001064  00000-0  10615-4 0  9997,2 55401  69.9976  98.5822 0003308 265.8460  94.2357 15.69919289 20744,6737.265,91.724,361.359,356.901,0.0
55401.0,STARLINK-5076,PAYLOAD,2023-06-05 19:41:39,15.69922201,0.0003395,69.9976,97.8655,261.9694,98.1117,6.1324e-07,-1.39e-06,0.0,0 STARLINK-5076,1 55401U 23014L   23156.82060181 -.00000139  00000-0  61324-6 0  9994,2 55401  69.9976  97.8655 0003395 261.9694  98.1117 15.69922201 20781,6737.257,91.724,361.409,356.834,0.0
55401.0,STARLINK-5076,PAYLOAD,2023-06-06 06:23:55,15.69931183,0.0003089,69.9984,96.6123,255.9484,104.1368,2.0298e-06,3.1e-07,0.0,0 STARLINK-5076,1 55401U 23014L   23157.26661288  .00000031  00000-0  20298-5 0  9992,2 55401  69.9984  96.6123 0003089 255.9484 104.1368 15.69931183 19915,6737.231,91.724,361.177,357.015,0.0
55401.0,STARLINK-5076,PAYLOAD,2023-06-06 20:09:41,15.69921174,0.0003309,69.9981,94.9993,266.0907,93.9911,1.4714e-05,1.557e-05,0.0,0 STARLINK-5076,1 55401U 23014L   23157.84006660  .00001557  00000-0  14714-4 0  9992,2 55401  69.9981  94.9993 0003309 266.0907  93.9911 15.69921174 20949,6737.26,91.724,361.354,356.895,0.0
55401.0,STARLINK-5076,PAYLOAD,2023-06-06 23:13:12,15.69921771,0.0003284,69.9977,94.6411,261.9397,98.1426,7.2702e-06,6.61e-06,0.0,0 STARLINK-5076,1 55401U 23014L   23157.96750084  .00000661  00000-0  72702-5 0  9998,2 55401  69.9977  94.6411 0003284 261.9397  98.1426 15.69921771 20025,6737.258,91.724,361.335,356.91,0.0
55401.0,STARLINK-5076,PAYLOAD,2023-06-07 05:20:12,15.69921762,0.0003518,69.9976,93.9249,264.9776,95.1018,8.9273e-06,8.61e-06,0.0,0 STARLINK-5076,1 55401U 23014L   23158.22236768  .00000861  00000-0  89273-5 0  9999,2 55401  69.9976  93.9249 0003518 264.9776  95.1018 15.69921762 21002,6737.258,91.724,361.493,356.753,0.0
55401.0,STARLINK-5076,PAYLOAD,2023-06-07 20:37:44,15.69920273,0.000321,69.9977,92.1315,265.1504,94.9325,9.3228e-06,9.08e-06,0.0,0 STARLINK-5076,1 55401U 23014L   23158.85953778  .00000908  00000-0  93228-5 0  9992,2 55401  69.9977  92.1315 0003210 265.1504  94.9325 15.69920273 21104,6737.262,91.724,361.29,356.964,0.0
55401.0,STARLINK-5076,PAYLOAD,2023-06-08 05:48:14,15.69929752,0.0003128,69.9965,91.0552,258.6121,101.4723,1.6238e-05,1.741e-05,0.0,0 STARLINK-5076,1 55401U 23014L   23159.24182990  .00001741  00000-0  16238-4 0  9997,2 55401  69.9965  91.0552 0003128 258.6121 101.4723 15.69929752 20221,6737.235,91.724,361.207,356.993,0.0
55401.0,STARLINK-5076,PAYLOAD,2023-06-08 22:37:30,15.69922276,0.0003166,69.9986,89.0874,258.3559,101.7282,1.6904e-05,1.82e-05,0.0,0 STARLINK-5076,1 55401U 23014L   23159.94271801  .00001820  00000-0  16904-4 0  9992,2 55401  69.9986  89.0874 0003166 258.3559 101.7282 15.69922276 20331,6737.256,91.724,361.254,356.988,0.0
55401.0,STARLINK-5076,PAYLOAD,2023-06-09 04:44:32,15.69916665,0.0003081,69.9974,88.3718,266.4687,93.6156,7.7335e-07,-1.2e-06,0.0,0 STARLINK-5076,1 55401U 23014L   23160.19759316 -.00000120  00000-0  77335-6 0  9993,2 55401  69.9974  88.3718 0003081 266.4687  93.6156 15.69916665 20373,6737.272,91.725,361.213,357.062,0.0
55401.0,STARLINK-5076,PAYLOAD,2023-06-09 21:33:48,15.69922102,0.0003516,69.9975,86.3985,265.5633,94.5161,3.0421e-06,1.53e-06,0.0,0 STARLINK-5076,1 55401U 23014L   23160.89847376  .00000153  00000-0  30421-5 0  9993,2 55401  69.9975  86.3985 0003516 265.5633  94.5161 15.69922102 20483,6737.257,91.724,361.491,356.753,0.0
55401.0,STARLINK-5076,PAYLOAD,2023-06-10 05:12:33,15.69931556,0.0003088,69.9971,85.5031,259.5051,100.5796,4.9699e-06,3.85e-06,0.0,0 STARLINK-5076,1 55401U 23014L   23161.21705133  .00000385  00000-0  49699-5 0  9998,2 55401  69.9971  85.5031 0003088 259.5051 100.5796 15.69931556 20534,6737.23,91.724,361.175,357.014,0.0
55401.0,STARLINK-5076,PAYLOAD,2023-06-11 01:05:20,15.69924545,0.0003871,69.9975,83.1756,266.7517,93.3235,5.0648e-06,3.96e-06,0.0,0 STARLINK-5076,1 55401U 23014L   23162.04537071  .00000396  00000-0  50648-5 0  9992,2 55401  69.9975  83.1756 0003871 266.7517  93.3235 15.69924545 20664,6737.25,91.724,361.723,356.507,0.0
55401.0,STARLINK-5076,PAYLOAD,2023-06-11 11:47:36,15.69916936,0.0003561,69.9968,81.9224,259.1939,100.8856,1.8716e-05,2.037e-05,0.0,0 STARLINK-5076,1 55401U 23014L   23162.49139069  .00002037  00000-0  18716-4 0  9999,2 55401  69.9968  81.9224 0003561 259.1939 100.8856 15.69916936 21672,6737.272,91.725,361.536,356.738,0.0
55401.0,STARLINK-5076,PAYLOAD,2023-06-11 17:54:36,15.69926448,0.0003562,69.9969,81.2058,262.6045,97.4746,1.695e-06,-9e-08,0.0,0 STARLINK-5076,1 55401U 23014L   23162.74625646 -.00000009  00000-0  16950-5 0  9995,2 55401  69.9969  81.2058 0003562 262.6045  97.4746 15.69926448 21712,6737.244,91.724,361.509,356.71,0.0
55401.0,STARLINK-5076,PAYLOAD,2023-06-11 22:29:51,15.69930915,0.0003515,69.9968,80.6684,262.811,97.2686,5.8357e-06,4.89e-06,0.0,0 STARLINK-5076,1 55401U 23014L   23162.93740266  .00000489  00000-0  58357-5 0  9990,2 55401  69.9968  80.6684 0003515 262.8110  97.2686 15.69930915 21740,6737.232,91.724,361.465,356.729,0.0
55401.0,STARLINK-5076,PAYLOAD,2023-06-12 04:36:53,15.69913557,0.0002889,69.9976,79.952,266.2569,93.8296,-1.4923e-05,-2.005e-05,0.0,0 STARLINK-5076,1 55401U 23014L   23163.19228380 -.00002005  00000-0 -14923-4 0  9995,2 55401  69.9976  79.9520 0002889 266.2569  93.8296 15.69913557 20840,6737.281,91.725,361.093,357.2,0.0
55401.0,STARLINK-5076,PAYLOAD,2023-06-13 00:29:39,15.69923174,0.0003393,69.9968,77.6211,263.166,96.9149,2.5755e-06,9.7e-07,0.0,0 STARLINK-5076,1 55401U 23014L   23164.02059188  .00000097  00000-0  25755-5 0  9999,2 55401  69.9968  77.6211 0003393 263.1660  96.9149 15.69923174 20973,6737.254,91.724,361.405,356.833,0.0
55401.0,STARLINK-5076,PAYLOAD,2023-06-13 03:33:08,15.69930674,0.0003366,69.9975,77.2634,263.1067,96.9746,1.2236e-05,1.259e-05,0.0,0 STARLINK-5076,1 55401U 23014L   23164.14801955  .00001259  00000-0  12236-4 0  9999,2 55401  69.9975  77.2634 0003366 263.1067  96.9746 15.69930674 20995,6737.232,91.724,361.365,356.83,0.0
55401.0,STARLINK-5076,PAYLOAD,2023-06-14 00:57:40,15.69929478,0.0003392,69.9981,74.7565,265.0578,95.0231,3.7173e-06,2.34e-06,0.0,0 STARLINK-5076,1 55401U 23014L   23165.04005479  .00000234  00000-0  37173-5 0  9996,2 55401  69.9981  74.7565 0003392 265.0578  95.0231 15.69929478 21130,6737.236,91.724,361.386,356.815,0.0
55401.0,STARLINK-5076,PAYLOAD,2023-06-14 02:29:25,15.69935545,0.0003097,69.9983,74.5775,265.6931,94.3911,1.2584e-05,1.301e-05,0.0,0 STARLINK-5076,1 55401U 23014L   23165.10376749  .00001301  00000-0  12584-4 0  9998,2 55401  69.9983  74.5775 0003097 265.6931  94.3911 15.69935545 22088,6737.218,91.724,361.17,356.997,0.0
55401.0,STARLINK-5076,PAYLOAD,2023-06-15 02:57:28,15.69925708,0.0003105,69.9973,71.7094,286.6993,73.3862,2.9846e-06,1.46e-06,0.0,0 STARLINK-5076,1 55401U 23014L   23166.12324672  .00000146  00000-0  29846-5 0  9995,2 55401  69.9973  71.7094 0003105 286.6993  73.3862 15.69925708 21307,6737.247,91.724,361.203,357.02,0.0
55401.0,STARLINK-5076,PAYLOAD,2023-06-15 04:29:13,15.69919998,0.0002894,69.9983,71.5314,276.1639,83.9227,-2.1056e-06,-4.66e-06,0.0,0 STARLINK-5076,1 55401U 23014L   23166.18696599 -.00000466  00000-0 -21056-5 0  9993,2 55401  69.9983  71.5314 0002894 276.1639  83.9227 15.69919998 22257,6737.263,91.724,361.078,357.178,0.0
55401.0,STARLINK-5076,PAYLOAD,2023-06-15 21:18:29,15.69948138,0.0003628,69.9975,69.5646,258.1732,101.9057,-4.0503e-05,-5.085e-05,0.0,0 STARLINK-5076,1 55401U 23014L   23166.88783804 -.00005085  00000-0 -40503-4 0  9995,2 55401  69.9975  69.5646 0003628 258.1732 101.9057 15.69948138 21421,6737.182,91.723,361.492,356.603,0.0
55401.0,STARLINK-5076,PAYLOAD,2023-06-16 11:04:15,15.69928869,0.000346,69.9968,67.9482,263.0071,97.0731,3.0814e-05,3.495e-05,0.0,0 STARLINK-5076,1 55401U 23014L   23167.46128589  .00003495  00000-0  30814-4 0  9998,2 55401  69.9968  67.9482 0003460 263.0071  97.0731 15.69928869 21511,6737.238,91.724,361.434,356.771,0.0
55401.0,STARLINK-5076,PAYLOAD,2023-06-16 17:11:16,15.69910408,0.00039,69.998,67.2333,262.1957,97.8796,2.3759e-06,7.2e-07,0.0,0 STARLINK-5076,1 55401U 23014L   23167.71616637  .00000072  00000-0  23759-5 0  9991,2 55401  69.9980  67.2333 0003900 262.1957  97.8796 15.69910408 22492,6737.29,91.725,361.783,356.528,0.0
55401.0,STARLINK-5076,PAYLOAD,2023-06-16 23:18:17,15.69915683,0.0003811,69.9976,66.5157,261.4764,98.6,8.3197e-06,7.87e-06,0.0,0 STARLINK-5076,1 55401U 23014L   23167.97103019  .00000787  00000-0  83197-5 0  9999,2 55401  69.9976  66.5157 0003811 261.4764  98.6000 15.69915683 21599,6737.275,91.725,361.708,356.573,0.0
55401.0,STARLINK-5076,PAYLOAD,2023-06-17 02:21:47,15.6991096,0.0003819,69.9973,66.1571,259.9929,100.0836,7.9303e-06,7.4e-06,0.0,0 STARLINK-5076,1 55401U 23014L   23168.09846771  .00000740  00000-0  79303-5 0  9995,2 55401  69.9973  66.1571 0003819 259.9929 100.0836 15.69910960 22550,6737.289,91.725,361.727,356.581,0.0
55401.0,STARLINK-5076,PAYLOAD,2023-06-17 23:46:18,15.69919496,0.0003732,69.9977,63.6483,264.5176,95.5595,1.7537e-05,1.896e-05,0.0,0 STARLINK-5076,1 55401U 23014L   23168.99049751  .00001896  00000-0  17537-4 0  9990,2 55401  69.9977  63.6483 0003732 264.5176  95.5595 15.69919496 21752,6737.264,91.724,361.644,356.615,0.0
